OBJECT_NAME,OBJECT_ID,EPOCH,MEAN_MOTION,ECCENTRICITY,INCLINATION,RA_OF_ASC_NODE,ARG_OF_PERICENTER,MEAN_ANOMALY,EPHEMERIS_TYPE,CLASSIFICATION_TYPE,NORAD_CAT_ID,ELEMENT_SET_NO,REV_AT_EPOCH,BSTAR,MEAN_MOTION_DOT,MEAN_MOTION_DDOT
SWARM B,2013-067A,2026-07-15T13:04:40.633536,15.28718614,.00022913,87.7460,333.7022,82.8690,277.2820,0,U,39451,999,68757,.70996241E-4,.2017E-4,0
SWARM A,2013-067B,2026-07-15T12:57:38.806272,15.51463842,.00033255,87.3296,45.6982,93.3093,266.8549,0,U,39452,999,71064,.11083898E-3,.6581E-4,0
SWARM C,2013-067C,2026-07-15T12:57:30.761568,15.51462954,.00033147,87.3296,44.2791,93.5818,266.5823,0,U,39453,999,71060,.10944131E-3,.6499E-4,0
BRITE-CA1 (TORONTO),2014-033L,2026-07-15T07:15:31.183200,14.72722640,.00784377,97.9772,324.7176,185.9177,174.1112,0,U,40020,999,64635,.84681468E-4,.513E-5,0
OCO 2,2014-035A,2026-07-15T12:22:44.641344,14.57132362,.00014437,98.2020,137.3786,81.3363,278.7999,0,U,40059,999,64017,.46183912E-4,.163E-5,0
BRITE-PL2 (HEWELIUSZ),2014-049B,2026-07-15T13:23:13.221024,14.94687803,.00143041,97.9120,308.7813,21.0628,339.1178,0,U,40119,999,64568,.52887493E-4,.515E-5,0
MMS 1,2015-011A,2026-07-15T16:00:03.000096,0.28153594,.83128738,72.5001,348.4399,168.0564,323.7879,0,U,40482,999,136,0,-.1483E-4,0
MMS 2,2015-011B,2026-07-15T16:00:03.000096,0.28153312,.83156809,72.5041,348.4389,168.0591,323.7756,0,U,40483,999,136,0,-.1484E-4,0
MMS 3,2015-011C,2026-07-15T16:00:03.000096,0.28153675,.83140433,72.5038,348.4507,168.0668,323.7494,0,U,40484,999,133,0,-.1483E-4,0
MMS 4,2015-011D,2026-07-15T16:00:03.000096,0.28153619,.83139969,72.4994,348.4342,168.0767,323.7448,0,U,40485,999,139,0,-.1483E-4,0
ASTROSAT,2015-052A,2026-07-15T11:31:50.419488,14.82552491,.00074014,5.9976,311.6974,78.2788,281.8171,0,U,40930,999,58403,.53677027E-4,.1111E-4,0
DAMPE,2015-078A,2026-07-15T14:28:01.989984,15.30854496,.0011538,97.4556,202.2109,344.1360,15.9518,0,U,41173,999,58889,.32205741E-4,.883E-5,0
PISAT,2016-059B,2026-07-15T13:08:47.051520,14.69030179,.00304624,97.8191,195.7835,113.7528,246.6878,0,U,41784,999,52390,.85628989E-4,.459E-5,0
HXMT (HUIYAN),2017-034A,2026-07-15T14:44:57.107904,15.18690651,.00322477,43.0155,24.7238,323.3695,36.4949,0,U,42758,999,50198,.1138336E-3,.2188E-4,0
FLYING LAPTOP,2017-042G,2026-07-15T13:55:09.280992,15.01314628,.00196884,97.4803,351.0446,31.3072,328.9321,0,U,42831,999,49071,.16176772E-3,.2032E-4,0
ZHANGHENG 1-01 (CSES-1),2018-015C,2026-07-15T15:03:46.990944,15.20610880,.00164159,97.6890,2.8549,163.4405,196.7369,0,U,43194,999,46896,.1682866E-3,.3628E-4,0
SALSAT,2020-068K,2026-07-15T11:08:34.478880,15.30174422,.00092137,97.8855,201.2595,191.9024,168.1999,0,U,46495,999,31968,.14152956E-3,.4051E-4,0
IXPE,2021-121A,2026-07-15T16:00:03.000096,15.10492131,.00066981,0.2303,101.8666,150.2553,288.2195,0,U,49954,999,549,.38763455E-3,.7501E-4,0
SMILE,2026-109A,2026-07-13T23:01:31.580256,0.47500629,.83137076,70.0512,206.6048,286.9544,0.1879,0,U,69123,999,6,0,.936E-5,0
