SWARM B                 
1 39451U 13067A   26196.54491474  .00002017  00000+0  70996-4 0  9995
2 39451  87.7460 333.7022 0002291  82.8690 277.2820 15.28718614687577
SWARM A                 
1 39452U 13067B   26196.54003248  .00006581  00000+0  11084-3 0  9996
2 39452  87.3296  45.6982 0003325  93.3093 266.8549 15.51463842710641
SWARM C                 
1 39453U 13067C   26196.53993937  .00006499  00000+0  10944-3 0  9991
2 39453  87.3296  44.2791 0003314  93.5818 266.5823 15.51462954710601
BRITE-CA1 (TORONTO)     
1 40020U 14033L   26196.30244425  .00000513  00000+0  84681-4 0  9994
2 40020  97.9772 324.7176 0078437 185.9177 174.1112 14.72722640646352
OCO 2                   
1 40059U 14035A   26196.51579446  .00000163  00000+0  46184-4 0  9992
2 40059  98.2020 137.3786 0001443  81.3363 278.7999 14.57132362640175
BRITE-PL2 (HEWELIUSZ)   
1 40119U 14049B   26196.55779191  .00000515  00000+0  52887-4 0  9995
2 40119  97.9120 308.7813 0014304  21.0628 339.1178 14.94687803645687
MMS 1                   
1 40482U 15011A   26196.66670139 -.00001483  00000+0  00000+0 0  9993
2 40482  72.5001 348.4399 8312873 168.0564 323.7879  0.28153594  1363
MMS 2                   
1 40483U 15011B   26196.66670139 -.00001484  00000+0  00000+0 0  9995
2 40483  72.5041 348.4389 8315680 168.0591 323.7756  0.28153312  1368
MMS 3                   
1 40484U 15011C   26196.66670139 -.00001483  00000+0  00000+0 0  9995
2 40484  72.5038 348.4507 8314043 168.0668 323.7494  0.28153675  1332
MMS 4                   
1 40485U 15011D   26196.66670139 -.00001483  00000+0  00000+0 0  9996
2 40485  72.4994 348.4342 8313996 168.0767 323.7448  0.28153619  1399
ASTROSAT                
1 40930U 15052A   26196.48044467  .00001111  00000+0  53677-4 0  9995
2 40930   5.9976 311.6974 0007401  78.2788 281.8171 14.82552491584036
DAMPE                   
1 41173U 15078A   26196.60280081  .00000883  00000+0  32206-4 0  9991
2 41173  97.4556 202.2109 0011538 344.1360  15.9518 15.30854496588891
PISAT                   
1 41784U 16059B   26196.54776680  .00000459  00000+0  85629-4 0  9993
2 41784  97.8191 195.7835 0030462 113.7528 246.6878 14.69030179523901
HXMT (HUIYAN)           
1 42758U 17034A   26196.61454986  .00002188  00000+0  11383-3 0  9995
2 42758  43.0155  24.7238 0032247 323.3695  36.4949 15.18690651501981
FLYING LAPTOP           
1 42831U 17042G   26196.57996853  .00002032  00000+0  16177-3 0  9999
2 42831  97.4803 351.0446 0019688  31.3072 328.9321 15.01314628490712
ZHANGHENG 1-01 (CSES-1) 
1 43194U 18015C   26196.62762721  .00003628  00000+0  16829-3 0  9990
2 43194  97.6890   2.8549 0016415 163.4405 196.7369 15.20610880468965
SALSAT                  
1 46495U 20068K   26196.46428795  .00004051  00000+0  14153-3 0  9999
2 46495  97.8855 201.2595 0009213 191.9024 168.1999 15.30174422319686
IXPE                    
1 49954U 21121A   26196.66670139  .00007501  00000+0  38763-3 0  9992
2 49954   0.2303 101.8666 0006698 150.2553 288.2195 15.10492131  5499
SMILE                   
1 69123U 26109A   26194.95939329  .00000936  00000+0  00000+0 0  9996
2 69123  70.0512 206.6048 8313707 286.9544   0.1879  0.47500629    65
